[{"OBJECT_NAME":"STARLINK-1954","OBJECT_ID":"2021-009H","EPOCH":"2026-03-09T23:20:25.352160","MEAN_MOTION":15.30849174,"ECCENTRICITY":0.00046184,"INCLINATION":53.0574,"RA_OF_ASC_NODE":8.8654,"ARG_OF_PERICENTER":103.3293,"MEAN_ANOMALY":256.8222,"EPHEMERIS_TYPE":0,"CLASSIFICATION_TYPE":"U","NORAD_CAT_ID":47555,"ELEMENT_SET_NO":999,"REV_AT_EPOCH":28100,"BSTAR":0.0022371791,"MEAN_MOTION_DOT":0.00067883,"MEAN_MOTION_DDOT":0},{"OBJECT_NAME":"STARLINK-34880","OBJECT_ID":"2025-189E","EPOCH":"2026-03-09T16:20:53.599488","MEAN_MOTION":15.30191226,"ECCENTRICITY":0.00011111,"INCLINATION":53.1582,"RA_OF_ASC_NODE":206.9181,"ARG_OF_PERICENTER":74.3546,"MEAN_ANOMALY":285.7577,"EPHEMERIS_TYPE":0,"CLASSIFICATION_TYPE":"U","NORAD_CAT_ID":65327,"ELEMENT_SET_NO":999,"REV_AT_EPOCH":3110,"BSTAR":0.00099925706,"MEAN_MOTION_DOT":0.00029345,"MEAN_MOTION_DDOT":0}]
